SB KEPS @ AMSAT  $ORB23195.1
2Line Orbital Elements 23195.AMSAT

QST de W1STR

AMSAT Orbital Elements for Amateur Satellites in TLE Format
From Orbital Analysis Office
New England Sci-Tech STEM Education Center
Natick, MA July 14, 2023
To all radio amateurs


Decode two line element sets with the following key:
1 AAAAAU 00  0  0 BBBBB.BBBBBBBB  .CCCCCCCC  00000-0 ******** 0 DDDDZ
2 AAAAA EEE.EEEE FFF.FFFF GGGGGGG HHH.HHHH III.IIII JJ.JJJJJJJJKKKKKZ
KEY: A-CATALOGNUM B-EPOCHTIME C-DECAY *-BSTAR D-ELSETNUM E-INCLINATION
F-RAAN G-ECCENTRICITY H-ARGPERIGEE I-MNANOM J-MNMOTION K-ORBITNUM 
Z-CHECKSUM

For more detail see www.amsat.org/keplerian-elements-formats/

AO-07
1 07530U 74089B   23193.80466108 -.00000028  00000-0  11358-3 0  9996
2 07530 101.9476 180.6552 0012423  16.5699  54.3468 12.53665280226626
UO-11
1 14781U 84021B   23193.73094930  .00001656  00000-0  20014-3 0  9997
2 14781  97.6584 169.6745 0009662 113.5261 246.6971 14.84988793118930
AO-16
1 20439U 90005D   23194.72390941  .00000208  00000-0  92766-4 0  9990
2 20439  98.8837 185.6357 0011711 122.6712  51.2425 14.33123719748956
LO-19
1 20442U 90005G   23194.69879419  .00000202  00000-0  90278-4 0  9992
2 20442  98.8449 171.7825 0012873  99.9380 260.3257 14.33277567749208
HUBBLE
1 20580U 90037B   23194.19092035  .00004258  00000-0  22176-3 0  9992
2 20580  28.4697  94.9516 0002381 303.5588 189.5250 15.13455405625672
MET-2/21
1 22782U 93055A   23194.72471765  .00000085  00000-0  63632-4 0  9998
2 22782  82.5482  63.7016 0021757 332.8081  89.2255 13.83890637508396
AO-27
1 22825U 93061C   23194.65073999  .00000131  00000-0  68184-4 0  9991
2 22825  98.8392 237.9654 0008300 358.8072   1.3089 14.30319882554341
IO-26
1 22826U 93061D   23194.64747800  .00000152  00000-0  75615-4 0  9990
2 22826  98.8338 237.8248 0008541 343.7632  16.3275 14.30682355554590
FO-29
1 24278U 96046B   23192.73838520  .00000033  00000-0  70500-4 0  9993
2 24278  98.5294 167.9478 0350139 353.4098   6.2500 13.53149042328500
NOAA-15
1 25338U 98030A   23194.74339325  .00000249  00000-0  12154-3 0  9997
2 25338  98.6043 223.3444 0009392 232.0569 127.9763 14.26351072309047
GO-32
1 25397U 98043D   23193.79868056  .00000097  00000-0  62274-4 0  9998
2 25397  98.8699 151.4776 0002361  73.7223 286.4215 14.23886817299190
ISS
1 25544U 98067A   23194.81749766  .00010770  00000-0  19835-3 0  9991
2 25544  51.6416 196.5612 0000363  52.4414   2.7291 15.49719067405927
NO-44
1 26931U 01043C   23194.20170668  .00000212  00000-0  11192-3 0  9990
2 26931  67.0511 129.6537 0008047 268.3789  91.6391 14.30941547137466
SO-50
1 27607U 02058C   23194.70062979  .00001064  00000-0  16386-3 0  9994
2 27607  64.5530 183.6393 0066483 219.3302 140.2963 14.77390603106357
CO-55
1 27844U 03031E   23194.55070922  .00000394  00000-0  19498-3 0  9991
2 27844  98.6772 201.4206 0010835  53.9271 306.2909 14.22812359 39519
CO-57
1 27848U 03031J   23194.50056739  .00000341  00000-0  17277-3 0  9995
2 27848  98.6809 201.7771 0010877  67.6679 292.5651 14.22319040 39299
RS-22
1 27939U 03042A   23194.71444326  .00001242  00000-0  22297-3 0  9993
2 27939  98.2464 341.8789 0013471  56.6643  72.8733 14.68471366 58437
NOAA-18
1 28654U 05018A   23194.69182934  .00000216  00000-0  13992-3 0  9996
2 28654  98.9091 268.9536 0013267 307.4076  52.5887 14.12968333935314
CO-58
1 28895U 05043F   23194.35417546  .00001529  00000-0  28910-3 0  9998
2 28895  98.1568 326.2192 0015919 354.5607   5.5421 14.65757933944870
CO-65
1 32785U 08021C   23193.74238094  .00003509  00000-0  34690-3 0  9993
2 32785  97.7066 159.1542 0012862  26.7626 333.4254 14.92481138824703
AAUSAT2
1 32788U 08021F   23194.49388903  .00010155  00000-0  73054-3 0  9996
2 32788  97.5599 173.3349 0006040 261.8865  98.1676 15.04406029827162
DO-64
1 32789U 08021G   23194.64063840  .00061944  00000-0  15450-2 0  9991
2 32789  97.3000 216.0060 0005813  63.4323 296.7518 15.39968119831555
CO-66
1 32791U 08021J   23194.47647632  .00006465  00000-0  56568-3 0  9995
2 32791  97.6569 165.1665 0010560 334.4499  25.6200 14.97025107825673
RS-30
1 32953U 08025A   23194.68297573  .00000020  00000-0  71271-4 0  9997
2 32953  82.5042 300.6152 0020663 126.1235 234.1761 12.43126606686947
PRISM
1 33493U 09002B   23194.61820898  .00009015  00000-0  60444-3 0  9990
2 33493  98.2439 210.9976 0014341 322.1676  37.8541 15.07040124787737
NOAA-19
1 33591U 09005A   23194.73968428  .00000195  00000-0  12961-3 0  9998
2 33591  99.0979 241.0889 0014221 164.3663 195.7950 14.12785318743692
SRMSAT
1 37841U 11058D   23193.82643189  .00000458  00000-0  10632-3 0  9999
2 37841  19.9732  55.0034 0011763 313.5098 132.8570 14.10912886606659
HRBE
1 37855U 11061F   23194.66937214  .00027910  00000-0  83680-3 0  9991
2 37855 101.7054 171.3064 0113889 319.2351  40.0392 15.28246998641074
RS-40
1 38735U 12041C   23193.75787049  .00000030  00000-0  14402-3 0  9996
2 38735  82.4762  22.1432 0016571 239.7131 120.2309 12.42594754496983
ZACUBE-1
1 39417U 13066B   23194.44170164  .00003015  00000-0  34923-3 0  9999
2 39417  97.6860 155.1933 0054040 199.4105 160.5054 14.85160511521091
Delfi-N3xt
1 39428U 13066N   23193.78971451  .00004917  00000-0  70330-3 0  9999
2 39428  97.8323 117.7188 0111981 106.7963 254.5565 14.72809035516087
GOMX-1
1 39430U 13066Q   23194.67555973  .00001414  00000-0  25273-3 0  9993
2 39430  97.7772  84.2729 0143715 249.4384 109.1350 14.61949214513400
LO-74
1 39440U 13066AA  23194.61218299  .00003308  00000-0  42838-3 0  9995
2 39440  97.7726 142.5054 0073583 302.1106  57.2978 14.79630402519267
AO-73
1 39444U 13066AE  23194.44152168  .00003947  00000-0  43677-3 0  9993
2 39444  97.6720 157.7622 0052706 184.2419 175.8358 14.86897340520134
SPROUT
1 39770U 14029E   23194.59415902  .00018479  00000-0  13655-2 0  9997
2 39770  97.9875 322.6403 0006673 212.3004 147.7812 15.03257539496129
DTUSAT-2
1 40030U 14033W   23193.74596259  .00003684  00000-0  35707-3 0  9999
2 40030  97.9676 134.6155 0010035 198.4680 161.6176 14.93297646492322
EO-80
1 40032U 14033Y   23194.45871110  .00004730  00000-0  45663-3 0  9997
2 40032  97.9676 135.3554 0010023 195.7298 164.3611 14.93310463492414
HODOYOSHI-1
1 40299U 14070B   23194.72177921  .00010715  00000-0  32462-3 0  9995
2 40299  97.1931 256.7035 0010881 174.2855 185.8515 15.34268535482878
FIREBIRD FU3
1 40377U 15003B   23194.46972713  .00414317  66119-4  14268-2 0  9998
2 40377  99.0698 161.8466 0032774 116.9688 243.4932 15.88630436468805
FIREBIRD FU4
1 40378U 15003C   23194.47966518  .00402029  61932-4  14199-2 0  9994
2 40378  99.0709 162.1760 0033172 116.4037 244.0641 15.88108125468816
GRIFEX
1 40379U 15003D   23194.77743613  .00030170  00000-0  61794-3 0  9990
2 40379  99.0769 137.9897 0078747 177.6378 182.5252 15.42694069467481
XW-2C
1 40906U 15049H   23194.70004103  .00012308  00000-0  46482-3 0  9993
2 40906  97.4927 201.9336 0013392  74.0956 286.1757 15.27068262432444
XW-2D
1 40907U 15049J   23194.74936345  .00014555  00000-0  51551-3 0  9999
2 40907  97.4908 202.5901 0012315  68.8158 291.4397 15.29154739432545
LILACSAT-2
1 40908U 15049K   23194.75567598  .00006366  00000-0  29760-3 0  9999
2 40908  97.5244 197.7407 0015825  97.6186 262.6846 15.20027174431839
XW-2E
1 40909U 15049L   23194.71055622  .00030642  00000-0  76628-3 0  9995
2 40909  97.4512 209.0763 0008748  44.3620 315.8326 15.40031908433228
XW-2F
1 40910U 15049M   23194.71955672  .00029761  00000-0  76080-3 0  9993
2 40910  97.4604 208.3299 0009610  45.5076 314.6953 15.39357330432966
XW-2B
1 40911U 15049N   23194.68391891  .00014288  00000-0  50981-3 0  9997
2 40911  97.4887 202.9446 0012333  70.3565 289.9005 15.28916494432411
DCBB
1 40912U 15049P   23194.69518305  .00038571  00000-0  78700-3 0  9990
2 40912  97.4152 213.0385 0006411   4.4708 355.6597 15.46082305433704
IO-86
1 40931U 15052B   23194.01630130  .00001243  00000-0  82372-4 0  9999
2 40931   5.9991 262.1374 0013536 299.7524  60.1257 14.77270477421175
ATHENOXAT-1
1 41168U 15077C   23194.73549472  .00297885  00000-0  21201-2 0  9997
2 41168  14.9874  10.9432 0006473  49.0655 311.0234 15.71581237420485
ChubuSat-2
1 41338U 16012B   23194.68691083  .00004116  00000-0  28285-3 0  9999
2 41338  31.0040  48.3626 0012005  81.2694 278.9302 15.04190648406375
ChubuSat-3
1 41339U 16012C   23194.75071641  .00003792  00000-0  26127-3 0  9992
2 41339  31.0103  45.1199 0011918  89.3281 270.8721 15.04030611406378
Horyu-4
1 41340U 16012D   23194.73125769  .00007546  00000-0  46878-3 0  9999
2 41340  31.0053  12.5476 0011055 147.4039 212.7282 15.08264573406736
e-st@r-II
1 41459U 16025D   23194.68740141  .00026446  00000-0  73256-3 0  9995
2 41459  98.1841  38.7057 0102922   7.5942 352.6826 15.31693654396956
AAUSAT4
1 41460U 16025E   23194.55070584  .00140049  00000-0  13794-2 0  9996
2 41460  98.1545  52.4854 0045097 314.9241  44.8360 15.64207662397885
LO-87
1 41557U 16033B   23194.74504447  .00073211  00000-0  79239-3 0  9996
2 41557  97.3890 303.7685 0004127  41.6583 318.4989 15.63337486397774
NuSat2
1 41558U 16033C   23194.72052939  .00092881  00000-0  83312-3 0  9990
2 41558  97.4169 312.1311 0003228  19.5107 340.6277 15.68001119398125
Lapan A3
1 41603U 16040E   23194.74223432  .00002526  00000-0  11143-3 0  9999
2 41603  97.1648 219.0795 0011528 215.7236 144.3231 15.22598539391535
Pratham
1 41783U 16059A   23194.67843238  .00000840  00000-0  16774-3 0  9994
2 41783  97.8672 224.6119 0033389  19.2474 340.9982 14.64011444362850
TY-1
1 41844U 16066D   23194.76246277  .00062297  00000-0  86019-3 0  9993
2 41844  97.3647 214.8716 0004003 324.7928  35.3063 15.56967574371815
CAS-2T
1 41847U 16066G   23194.64922850  .00002283  00000-0  34418-3 0  9996
2 41847  98.5032 263.0744 0360547 117.9968 245.8192 14.39805313350618
EO-88
1 42017U 17008BX  23194.67830789  .01170226  82418-3  14404-2 0  9997
2 42017  97.2021 267.7026 0012155 250.4925 109.5046 16.07972040357688
CAS-4B
1 42759U 17034B   23194.71212452  .00008595  00000-0  42694-3 0  9990
2 42759  43.0165 328.1828 0012218 273.1653  86.7797 15.17865505335661
